{
  "type": "FeatureCollection",
  "features": [
    {
      "type": "Feature",
      "properties": {
        "norad_id": 66655,
        "name": "2025-274F",
        "group": "last-30-days",
        "lat": -68.2841671801177,
        "lon": -72.05097567295375,
        "alt_km": 593.296340161739,
        "timestamp": "2025-12-06T16:45:41.517189+00:00",
        "meta_object_name": "2025-274F",
        "meta_object_id": "2025-274F",
        "meta_epoch": "2025-12-05T18:32:36.565152",
        "meta_mean_motion": 14.92310052,
        "meta_eccentricity": 0.00072585,
        "meta_inclination": 97.7327,
        "meta_ra_of_asc_node": 267.0918,
        "meta_arg_of_pericenter": 315.5188,
        "meta_mean_anomaly": 44.5447,
        "meta_ephemeris_type": 0,
        "meta_classification_type": "U",
        "meta_norad_cat_id": 66655,
        "meta_element_set_no": 999,
        "meta_rev_at_epoch": 136,
        "meta_bstar": 0.00037174386,
        "meta_mean_motion_dot": 3.744e-05,
        "meta_mean_motion_ddot": 0,
        "tle_line1": "1 66655U 25274F   25339.77264543  .00003744  00000+0  37174-3 0  9990",
        "tle_line2": "2 66655  97.7327 267.0918 0007258 315.5188  44.5447 14.92310052  1366"
      },
      "geometry": {
        "type": "Point",
        "coordinates": [
          -72.05097567295375,
          -68.2841671801177
        ]
      }
    },
    {
      "type": "Feature",
      "properties": {
        "norad_id": 66656,
        "name": "2025-274G",
        "group": "last-30-days",
        "lat": -67.94996242177926,
        "lon": -72.37707145214173,
        "alt_km": 589.7343707134733,
        "timestamp": "2025-12-06T16:45:41.517198+00:00",
        "meta_object_name": "2025-274G",
        "meta_object_id": "2025-274G",
        "meta_epoch": "2025-12-06T05:48:20.636928",
        "meta_mean_motion": 14.92214782,
        "meta_eccentricity": 0.00124673,
        "meta_inclination": 97.7388,
        "meta_ra_of_asc_node": 267.5572,
        "meta_arg_of_pericenter": 282.0014,
        "meta_mean_anomaly": 77.9808,
        "meta_ephemeris_type": 0,
        "meta_classification_type": "U",
        "meta_norad_cat_id": 66656,
        "meta_element_set_no": 999,
        "meta_rev_at_epoch": 143,
        "meta_bstar": 0.00053095271,
        "meta_mean_motion_dot": 5.364e-05,
        "meta_mean_motion_ddot": 0,
        "tle_line1": "1 66656U 25274G   25340.24190552  .00005364  00000+0  53095-3 0  9993",
        "tle_line2": "2 66656  97.7388 267.5572 0012467 282.0014  77.9808 14.92214782  1431"
      },
      "geometry": {
        "type": "Point",
        "coordinates": [
          -72.37707145214173,
          -67.94996242177926
        ]
      }
    },
    {
      "type": "Feature",
      "properties": {
        "norad_id": 66657,
        "name": "SPIRONE",
        "group": "last-30-days",
        "lat": -61.892154185537045,
        "lon": -77.24230409143999,
        "alt_km": 589.9719403796871,
        "timestamp": "2025-12-06T16:45:41.517208+00:00",
        "meta_object_name": "SPIRONE",
        "meta_object_id": "2025-274H",
        "meta_epoch": "2025-12-06T04:10:09.301728",
        "meta_mean_motion": 14.92392696,
        "meta_eccentricity": 0.00110283,
        "meta_inclination": 97.7387,
        "meta_ra_of_asc_node": 267.4926,
        "meta_arg_of_pericenter": 301.3798,
        "meta_mean_anomaly": 58.6342,
        "meta_ephemeris_type": 0,
        "meta_classification_type": "U",
        "meta_norad_cat_id": 66657,
        "meta_element_set_no": 999,
        "meta_rev_at_epoch": 142,
        "meta_bstar": 0.00048149504,
        "meta_mean_motion_dot": 4.879e-05,
        "meta_mean_motion_ddot": 0,
        "tle_line1": "1 66657U 25274H   25340.17371877  .00004879  00000+0  48150-3 0  9993",
        "tle_line2": "2 66657  97.7387 267.4926 0011028 301.3798  58.6342 14.92392696  1428"
      },
      "geometry": {
        "type": "Point",
        "coordinates": [
          -77.24230409143999,
          -61.892154185537045
        ]
      }
    },
    {
      "type": "Feature",
      "properties": {
        "norad_id": 66658,
        "name": "2025-274J",
        "group": "last-30-days",
        "lat": -55.80340846369525,
        "lon": -80.44479400176017,
        "alt_km": 588.9168068668005,
        "timestamp": "2025-12-06T16:45:41.517218+00:00",
        "meta_object_name": "2025-274J",
        "meta_object_id": "2025-274J",
        "meta_epoch": "2025-12-06T04:08:32.957088",
        "meta_mean_motion": 14.92566191,
        "meta_eccentricity": 0.00115955,
        "meta_inclination": 97.7389,
        "meta_ra_of_asc_node": 267.494,
        "meta_arg_of_pericenter": 304.2869,
        "meta_mean_anomaly": 55.7252,
        "meta_ephemeris_type": 0,
        "meta_classification_type": "U",
        "meta_norad_cat_id": 66658,
        "meta_element_set_no": 999,
        "meta_rev_at_epoch": 142,
        "meta_bstar": 0.00046397043,
        "meta_mean_motion_dot": 4.721e-05,
        "meta_mean_motion_ddot": 0,
        "tle_line1": "1 66658U 25274J   25340.17260367  .00004721  00000+0  46397-3 0  9992",
        "tle_line2": "2 66658  97.7389 267.4940 0011595 304.2869  55.7252 14.92566191  1428"
      },
      "geometry": {
        "type": "Point",
        "coordinates": [
          -80.44479400176017,
          -55.80340846369525
        ]
      }
    },
    {
      "type": "Feature",
      "properties": {
        "norad_id": 66659,
        "name": "JACK K",
        "group": "last-30-days",
        "lat": -49.27426955722351,
        "lon": -82.89753489720106,
        "alt_km": 587.7239231922995,
        "timestamp": "2025-12-06T16:45:41.517230+00:00",
        "meta_object_name": "JACK K",
        "meta_object_id": "2025-274K",
        "meta_epoch": "2025-12-06T05:43:22.396224",
        "meta_mean_motion": 14.92753589,
        "meta_eccentricity": 0.0012305,
        "meta_inclination": 97.7391,
        "meta_ra_of_asc_node": 267.5616,
        "meta_arg_of_pericenter": 305.1244,
        "meta_mean_anomaly": 54.8821,
        "meta_ephemeris_type": 0,
        "meta_classification_type": "U",
        "meta_norad_cat_id": 66659,
        "meta_element_set_no": 999,
        "meta_rev_at_epoch": 143,
        "meta_bstar": 0.00049664158,
        "meta_mean_motion_dot": 5.082e-05,
        "meta_mean_motion_ddot": 0,
        "tle_line1": "1 66659U 25274K   25340.23845366  .00005082  00000+0  49664-3 0  9999",
        "tle_line2": "2 66659  97.7391 267.5616 0012305 305.1244  54.8821 14.92753589  1432"
      },
      "geometry": {
        "type": "Point",
        "coordinates": [
          -82.89753489720106,
          -49.27426955722351
        ]
      }
    },
    {
      "type": "Feature",
      "properties": {
        "norad_id": 66660,
        "name": "K-HERO",
        "group": "last-30-days",
        "lat": -43.996223005124676,
        "lon": -84.43756165627859,
        "alt_km": 586.7541874759881,
        "timestamp": "2025-12-06T16:45:41.517240+00:00",
        "meta_object_name": "K-HERO",
        "meta_object_id": "2025-274L",
        "meta_epoch": "2025-12-06T05:41:59.736480",
        "meta_mean_motion": 14.92901679,
        "meta_eccentricity": 0.00129491,
        "meta_inclination": 97.7396,
        "meta_ra_of_asc_node": 267.5634,
        "meta_arg_of_pericenter": 305.6646,
        "meta_mean_anomaly": 54.3367,
        "meta_ephemeris_type": 0,
        "meta_classification_type": "U",
        "meta_norad_cat_id": 66660,
        "meta_element_set_no": 999,
        "meta_rev_at_epoch": 143,
        "meta_bstar": 0.00048969117,
        "meta_mean_motion_dot": 5.03e-05,
        "meta_mean_motion_ddot": 0,
        "tle_line1": "1 66660U 25274L   25340.23749695  .00005030  00000+0  48969-3 0  9999",
        "tle_line2": "2 66660  97.7396 267.5634 0012949 305.6646  54.3367 14.92901679  1439"
      },
      "geometry": {
        "type": "Point",
        "coordinates": [
          -84.43756165627859,
          -43.996223005124676
        ]
      }
    },
    {
      "type": "Feature",
      "properties": {
        "norad_id": 66661,
        "name": "SNUGLITE-III",
        "group": "last-30-days",
        "lat": -38.572718022604754,
        "lon": -85.75478564566258,
        "alt_km": 585.7926610996801,
        "timestamp": "2025-12-06T16:45:41.517251+00:00",
        "meta_object_name": "SNUGLITE-III",
        "meta_object_id": "2025-274M",
        "meta_epoch": "2025-12-06T04:04:04.638432",
        "meta_mean_motion": 14.93049395,
        "meta_eccentricity": 0.00135919,
        "meta_inclination": 97.7393,
        "meta_ra_of_asc_node": 267.4985,
        "meta_arg_of_pericenter": 306.9774,
        "meta_mean_anomaly": 53.0201,
        "meta_ephemeris_type": 0,
        "meta_classification_type": "U",
        "meta_norad_cat_id": 66661,
        "meta_element_set_no": 999,
        "meta_rev_at_epoch": 142,
        "meta_bstar": 0.00043927767,
        "meta_mean_motion_dot": 4.524e-05,
        "meta_mean_motion_ddot": 0,
        "tle_line1": "1 66661U 25274M   25340.16949813  .00004524  00000+0  43928-3 0  9993",
        "tle_line2": "2 66661  97.7393 267.4985 0013591 306.9774  53.0201 14.93049395  1426"
      },
      "geometry": {
        "type": "Point",
        "coordinates": [
          -85.75478564566258,
          -38.572718022604754
        ]
      }
    }
  ]
}